STARLINK-4002           
1 52612U 22052Q   22150.50001157  .00098264  00000+0  69731-3 0  9993
2 52612  53.2146   2.1007 0001307 111.3839 256.9117 15.73169006  2849
STARLINK-3921           
1 52613U 22052R   22150.16667824  .00082494  00000+0  58835-3 0  9996
2 52613  53.2142   3.7455 0000989 103.3176 178.4837 15.73123838  2794
STARLINK-3982           
1 52614U 22052S   22150.16667824  .00039947  00000+0  28831-3 0  9995
2 52614  53.2144   3.7481 0001009  98.0800 183.1560 15.73149116  2797
STARLINK-4011           
1 52615U 22052T   22150.50001157 -.00826429  00000+0 -90122-2 0  9997
2 52615  53.2174   2.1954 0001200 119.3998 190.3664 15.65318871  2845
STARLINK-4015           
1 52616U 22052U   22150.50001157  .00043286  00000+0  31140-3 0  9994
2 52616  53.2145   2.0944 0001282 109.3957 262.0608 15.73188027  2848
STARLINK-3996           
1 52617U 22052V   22150.16667824  .00136068  00000+0  96330-3 0  9999
2 52617  53.2141   3.7384 0000898 102.0654 183.3588 15.73077747  2799
STARLINK-3983           
1 52618U 22052W   22150.16667824  .00105521  00000+0  74990-3 0  9998
2 52618  53.2143   3.7440 0001039 102.0457 180.9602 15.73104690  2792
STARLINK-3741           
1 52619U 22052X   22150.50001157  .00095321  00000+0  67701-3 0  9996
2 52619  53.2142   2.0856 0000989 110.9968 263.8442 15.73161865  2849
STARLINK-3975           
1 52620U 22052Y   22150.50001157 -.00826537  00000+0 -90116-2 0  9996
2 52620  53.2174   2.1994 0001168 113.7280 196.7175 15.65324372  2840
STARLINK-3984           
1 52621U 22052Z   22150.50001157  .00096180  00000+0  68336-3 0  9998
2 52621  53.2141   2.0819 0001147 113.7900 262.8549 15.73149433  2848
STARLINK-4008           
1 52622U 22052AA  22150.16667824 -.00832221  00000+0 -88595-2 0  9994
2 52622  53.2172   3.8802 0001345 121.4330 109.8616 15.65931696  2797
STARLINK-3986           
1 52623U 22052AB  22150.16667824  .00110812  00000+0  78712-3 0  9999
2 52623  53.2139   3.7305 0001115 104.5507 184.3798 15.73094661  2791
STARLINK-4009           
1 52624U 22052AC  22150.50001157  .00098017  00000+0  69637-3 0  9997
2 52624  53.2143   2.0847 0001153 122.3949 253.0806 15.73142885  2842
STARLINK-3988           
1 52625U 22052AD  22150.16667824  .00120159  00000+0  85229-3 0  9997
2 52625  53.2139   3.7289 0001263 102.5506 187.0264 15.73091759  2798
STARLINK-3990           
1 52626U 22052AE  22150.16667824  .00037773  00000+0  27309-3 0  9992
2 52626  53.2142   3.7348 0001267  96.6463 190.5693 15.73135265  2794
STARLINK-3992           
1 52627U 22052AF  22150.16667824  .00108871  00000+0  77370-3 0  9994
2 52627  53.2139   3.7253 0001059 104.7003 186.6798 15.73091356  2790
STARLINK-4001           
1 52628U 22052AG  22150.50001157 -.00826275  00000+0 -90124-2 0  9992
2 52628  53.2175   2.2484 0001144 109.7413 204.6760 15.65313665  2843
STARLINK-4022           
1 52629U 22052AH  22150.50001157  .00153403  00000+0  10805-2 0  9995
2 52629  53.2139   2.0730 0001058 112.4533 268.4067 15.73136613  2847
STARLINK-3989           
1 52630U 22052AJ  22150.16667824  .00082212  00000+0  58662-3 0  9991
2 52630  53.2140   3.7283 0001324  99.2842 190.8778 15.73113698  2792
STARLINK-3794           
1 52631U 22052AK  22150.16667824  .00079625  00000+0  56884-3 0  9990
2 52631  53.2138   3.7213 0000826  98.1457 195.0297 15.73098813  2793
STARLINK-3995           
1 52632U 22052AL  22150.50001157  .00096328  00000+0  68435-3 0  9994
2 52632  53.2141   2.0765 0001007 123.7852 255.8226 15.73150989  2844
STARLINK-3994           
1 52633U 22052AM  22150.16667824  .00082862  00000+0  59084-3 0  9994
2 52633  53.2136   3.7180 0000886 105.4452 189.4666 15.73127202  2791
STARLINK-3974           
1 52634U 22052AN  22150.16667824  .00073818  00000+0  52810-3 0  9996
2 52634  53.2140   3.7232 0000788 103.6910 188.8978 15.73096075  2797
STARLINK-3978           
1 52635U 22052AP  22150.50001157  .00195093  00000+0  13667-2 0  9992
2 52635  53.2137   2.0642 0000951 120.5379 264.4614 15.73126599  2849
STARLINK-3967           
1 52636U 22052AQ  22150.50001157  .00093643  00000+0  66444-3 0  9993
2 52636  53.2139   2.0700 0001081 115.5645 267.0276 15.73192138  2847
STARLINK-3961           
1 52637U 22052AR  22150.16667824  .00087426  00000+0  62312-3 0  9997
2 52637  53.2135   3.7138 0001367  99.3567 197.3701 15.73115066  2793
STARLINK-3941           
1 52638U 22052AS  22150.50001157  .00110928  00000+0  78453-3 0  9994
2 52638  53.2147   2.0670 0001133 118.1403 265.0950 15.73195899  2847
STARLINK-3968           
1 52639U 22052AT  22150.16667824  .00105525  00000+0  75030-3 0  9991
2 52639  53.2134   3.7099 0000787 107.2990 191.2342 15.73093009  2790
STARLINK-3977           
1 52640U 22052AU  22150.50001157  .00095879  00000+0  68117-3 0  9990
2 52640  53.2138   2.0656 0001395 105.7841 278.6451 15.73152341  2843
STARLINK-3991           
1 52641U 22052AV  22150.25001157  .00133393  00000+0  94419-3 0  9991
2 52641  53.2134   3.2955 0001074 116.1930 295.1542 15.73091755  2817
STARLINK-3971           
1 52642U 22052AW  22150.16667824  .00116659  00000+0  82822-3 0  9992
2 52642  53.2137   3.7129 0001125 103.2581 194.0627 15.73083843  2792
STARLINK-3963           
1 52643U 22052AX  22149.85948264  .00010143  00000+0  76712-4 0  9990
2 52643  53.2141   5.2248 0001217 101.9477 258.1679 15.73164089  2373
STARLINK-3985           
1 52644U 22052AY  22150.50001157  .00091583  00000+0  65128-3 0  9991
2 52644  53.2137   2.0601 0001301 118.1686 268.7849 15.73148864  2844
STARLINK-3973           
1 52645U 22052AZ  22150.50001157  .00095560  00000+0  67852-3 0  9997
2 52645  53.2132   2.0521 0001320 114.7808 275.5293 15.73166978  2845
STARLINK-3832           
1 52646U 22052BA  22150.16667824  .00041017  00000+0  29586-3 0  9999
2 52646  53.2135   3.7079 0001026 110.1168 189.5841 15.73150638  2790
STARLINK-3846           
1 52647U 22052BB  22150.16667824  .00087994  00000+0  62699-3 0  9996
2 52647  53.2132   3.7008 0000958 109.9850 192.6831 15.73119161  2797
STARLINK-3854           
1 52648U 22052BC  22150.16667824  .00068772  00000+0  49243-3 0  9990
2 52648  53.2137   3.7065 0000919 114.3826 185.9892 15.73104008  2792
STARLINK-3868           
1 52649U 22052BD  22150.16667824  .00085541  00000+0  60990-3 0  9996
2 52649  53.2130   3.7023 0001065  87.3226 214.7713 15.73115957  2794
STARLINK-3891           
1 52650U 22052BE  22150.50001157  .00089504  00000+0  63591-3 0  9990
2 52650  53.2134   2.0495 0000957 114.7448 277.3739 15.73179938  2843
FALCON 9 DEB            
1 52651U 22052BF  22150.00808215  .00234714  32128-4  64074-3 0  9999
2 52651  53.2082   3.2438 0013789 301.8595  58.1092 15.93523467  2417
FALCON 9 DEB            
1 52652U 22052BG  22150.31657311  .00250935  35488-4  64909-3 0  9995
2 52652  53.2076   1.6118 0014339 309.3252  50.6506 15.94500127  2464
FALCON 9 DEB            
1 52653U 22052BH  22149.99198211  .00275903  41180-4  66786-3 0  9990
2 52653  53.2092   3.1436 0010456 299.8272  60.1717 15.95796381  2419
FALCON 9 DEB            
1 52654U 22052BJ  22149.86292238  .00313765  50438-4  73899-3 0  9999
2 52654  53.2118   3.7632 0009659 316.6210  43.4059 15.96287772  2396
STARLINK-4004           
1 52656U 22053A   22150.53534762  .00035313  00000+0  25568-3 0  9994
2 52656  53.2138 237.9549 0001845  16.4357 343.6723 15.73133670  2737
STARLINK-4084           
1 52657U 22053B   22150.53566103 -.00013383  00000+0 -91498-4 0  9990
2 52657  53.2146 237.9555 0002189 347.3638  12.7327 15.73091974  3032
STARLINK-4082           
1 52658U 22053C   22150.53547394 -.00182482  00000+0 -13380-2 0  9991
2 52658  53.2140 237.9549 0004236 335.5477  24.5342 15.72940722  2855
STARLINK-3960           
1 52659U 22053D   22150.53555988  .00031069  00000+0  22600-3 0  9998
2 52659  53.2153 237.9555 0002071  18.1556 341.9538 15.73091007  2851
STARLINK-4081           
1 52660U 22053E   22150.53525110 -.00101964  00000+0 -73657-3 0  9996
2 52660  53.2143 237.9527 0002543 355.0502   5.0493 15.73015284  2737
STARLINK-4042           
1 52661U 22053F   22150.53513243 -.00029798  00000+0 -20926-3 0  9996
2 52661  53.2152 237.9530 0002308  10.8775 349.2294 15.73127351  2662
STARLINK-4044           
1 52662U 22053G   22150.53493047 -.00111348  00000+0 -80626-3 0  9992
2 52662  53.2139 237.9518 0003364 325.1274  34.9525 15.72993439  2665
STARLINK-4037           
1 52663U 22053H   22150.53480738 -.00030076  00000+0 -21133-3 0  9992
2 52663  53.2148 237.9495 0002329 340.8048  19.2884 15.73119442  2662
STARLINK-4070           
1 52664U 22053J   22150.53502902 -.00029547  00000+0 -20776-3 0  9994
2 52664  53.2151 237.9511 0002314  26.1266 333.9870 15.73093017  2666
STARLINK-4064           
1 52665U 22053K   22150.53442365 -.00142720  00000+0 -10394-2 0  9994
2 52665  53.2127 237.9457 0002842   3.7931 356.3110 15.72976869  2665
STARLINK-4079           
1 52666U 22053L   22150.53471863 -.00042440  00000+0 -30103-3 0  9999
2 52666  53.2146 237.9491 0001957  33.0834 327.0308 15.73078890  2661
STARLINK-4076           
1 52667U 22053M   22150.53429524 -.00012210  00000+0 -82962-4 0  9990
2 52667  53.2148 237.9445 0002304  36.6500 323.4677 15.73123344  2663
STARLINK-4067           
1 52668U 22053N   22150.53460802 -.00060865  00000+0 -43480-3 0  9995
2 52668  53.2143 237.9483 0002250 347.9021  12.1945 15.73066937  2661
STARLINK-3972           
1 52669U 22053P   22150.53399520 -.00024618  00000+0 -17237-3 0  9991
2 52669  53.2143 237.9439 0002297  10.1910 349.9157 15.73078428  2653
STARLINK-4075           
1 52670U 22053Q   22150.53451057 -.00022615  00000+0 -15785-3 0  9998
2 52670  53.2146 237.9478 0002294  11.2800 348.8271 15.73092085  2221
STARLINK-4071           
1 52671U 22053R   22150.53388816  .00016962  00000+0  12552-3 0  9996
2 52671  53.2144 237.9422 0002140 330.1285  29.9613 15.73107127  2220
